ONEWEB-0063             
1 45448U 20020AA  24064.41094658  .00000441  00000+0  12095-2 0  9999
2 45448  87.9029 187.0228 0001971 115.5841 244.5491 13.11417930193285
ONEWEB-0019             
1 45449U 20020AB  24064.38496353  .00000115  00000+0  28801-3 0  9995
2 45449  87.9036 187.0264 0001586 109.6355 250.4945 13.11419320193139
ONEWEB-0094             
1 45450U 20020AC  24063.83138076  .00000016  00000+0  90798-5 0  9997
2 45450  87.9263 172.0048 0001888 105.2481 254.8859 13.17651287196304
ONEWEB-0087             
1 45451U 20020AD  24064.41744007  .00000324  00000+0  87824-3 0  9996
2 45451  87.9020 186.9984 0002014 100.5848 259.5506 13.11415048193187
ONEWEB-0082             
1 45452U 20020AE  24064.41905902  .00000304  00000+0  82268-3 0  9995
2 45452  87.9026 186.9978 0001688 104.8519 255.2796 13.11414466193272
ONEWEB-0050             
1 45453U 20020AF  24064.25001157  .00016912  00000+0  18135-2 0  9990
2 45453  87.9978  54.6969 0005888  96.9312 350.8931 14.88544107216009
ONEWEB-0034             
1 45454U 20020AG  24064.36223946 -.00000307  00000+0 -90113-3 0  9995
2 45454  87.9028 187.0267 0002090 105.4589 254.6770 13.11417516193185
ONEWEB-0060             
1 45455U 20020AH  24064.37036865  .00001253  00000+0  34998-2 0  9996
2 45455  87.9042 187.0201 0001640 109.2039 250.9267 13.11402017193148
